{"type": "FeatureCollection", "features": [ {"type": "Feature", "properties": {"norad_id": 58662, "name": "TIANMU-1 21", "group": "weather", "lat": 60.56338254188233, "lon": 91.928575414778, "alt_km": 469.15387043590545, "timestamp": "2025-12-17T21:39:45.355687+00:00", "meta": {"OBJECT_NAME": "TIANMU-1 21", "OBJECT_ID": "2023-208C", "EPOCH": "2025-12-17T13:33:19.203840", "MEAN_MOTION": 15.31654018, "ECCENTRICITY": 0.00060513, "INCLINATION": 97.4376, "RA_OF_ASC_NODE": 104.9748, "ARG_OF_PERICENTER": 239.6484, "MEAN_ANOMALY": 120.4159, "EPHEMERIS_TYPE": 0, "CLASSIFICATION_TYPE": "U", "NORAD_CAT_ID": 58662, "ELEMENT_SET_NO": 999, "REV_AT_EPOCH": 10973, "BSTAR": 0.00029898325, "MEAN_MOTION_DOT": 9.066e-05, "MEAN_MOTION_DDOT": 0}, "tle": {"line1": "1 58662U 23208C   25351.56480560  .00009066  00000+0  29898-3 0  9991", "line2": "2 58662  97.4376 104.9748 0006051 239.6484 120.4159 15.31654018109732"}}, "geometry": {"type": "Point", "coordinates": [91.928575414778, 60.56338254188233]}}, {"type": "Feature", "properties": {"norad_id": 58663, "name": "TIANMU-1 22", "group": "weather", "lat": -82.55072772752646, "lon": -169.24917944531302, "alt_km": 488.27045648836065, "timestamp": "2025-12-17T21:39:45.355696+00:00", "meta": {"OBJECT_NAME": "TIANMU-1 22", "OBJECT_ID": "2023-208D", "EPOCH": "2025-12-17T12:37:21.705888", "MEAN_MOTION": 15.27685362, "ECCENTRICITY": 0.00026894, "INCLINATION": 97.4385, "RA_OF_ASC_NODE": 102.6107, "ARG_OF_PERICENTER": 261.4401, "MEAN_ANOMALY": 98.6534, "EPHEMERIS_TYPE": 0, "CLASSIFICATION_TYPE": "U", "NORAD_CAT_ID": 58663, "ELEMENT_SET_NO": 999, "REV_AT_EPOCH": 10956, "BSTAR": 0.00027878752, "MEAN_MOTION_DOT": 7.469e-05, "MEAN_MOTION_DDOT": 0}, "tle": {"line1": "1 58663U 23208D   25351.52594567  .00007469  00000+0  27879-3 0  9993", "line2": "2 58663  97.4385 102.6107 0002689 261.4401  98.6534 15.27685362109567"}}, "geometry": {"type": "Point", "coordinates": [-169.24917944531302, -82.55072772752646]}}, {"type": "Feature", "properties": {"norad_id": 58700, "name": "TIANMU-1 15", "group": "weather", "lat": -18.771861205352945, "lon": 175.90557589661782, "alt_km": 495.9508558255693, "timestamp": "2025-12-17T21:39:45.355705+00:00", "meta": {"OBJECT_NAME": "TIANMU-1 15", "OBJECT_ID": "2024-004A", "EPOCH": "2025-12-15T13:02:10.173984", "MEAN_MOTION": 15.24523626, "ECCENTRICITY": 0.00056536, "INCLINATION": 97.4626, "RA_OF_ASC_NODE": 171.0022, "ARG_OF_PERICENTER": 279.9728, "MEAN_ANOMALY": 80.0871, "EPHEMERIS_TYPE": 0, "CLASSIFICATION_TYPE": "U", "NORAD_CAT_ID": 58700, "ELEMENT_SET_NO": 999, "REV_AT_EPOCH": 10777, "BSTAR": 0.00021318175, "MEAN_MOTION_DOT": 5.174e-05, "MEAN_MOTION_DDOT": 0}, "tle": {"line1": "1 58700U 24004A   25349.54317331  .00005174  00000+0  21318-3 0  9994", "line2": "2 58700  97.4626 171.0022 0005653 279.9728  80.0871 15.24523626107774"}}, "geometry": {"type": "Point", "coordinates": [175.90557589661782, -18.771861205352945]}}, {"type": "Feature", "properties": {"norad_id": 58701, "name": "TIANMU-1 16", "group": "weather", "lat": 61.54858516836764, "lon": 158.750045877645, "alt_km": 488.8937475866542, "timestamp": "2025-12-17T21:39:45.355714+00:00", "meta": {"OBJECT_NAME": "TIANMU-1 16", "OBJECT_ID": "2024-004B", "EPOCH": "2025-12-17T15:05:17.831040", "MEAN_MOTION": 15.24498154, "ECCENTRICITY": 0.00043424, "INCLINATION": 97.4562, "RA_OF_ASC_NODE": 172.4643, "ARG_OF_PERICENTER": 274.1474, "MEAN_ANOMALY": 85.9267, "EPHEMERIS_TYPE": 0, "CLASSIFICATION_TYPE": "U", "NORAD_CAT_ID": 58701, "ELEMENT_SET_NO": 999, "REV_AT_EPOCH": 10809, "BSTAR": 0.00022233347, "MEAN_MOTION_DOT": 5.394e-05, "MEAN_MOTION_DDOT": 0}, "tle": {"line1": "1 58701U 24004B   25351.62867860  .00005394  00000+0  22233-3 0  9995", "line2": "2 58701  97.4562 172.4643 0004342 274.1474  85.9267 15.24498154108093"}}, "geometry": {"type": "Point", "coordinates": [158.750045877645, 61.54858516836764]}}, {"type": "Feature", "properties": {"norad_id": 58702, "name": "TIANMU-1 17", "group": "weather", "lat": 31.825160988609518, "lon": -2.1859733432197146, "alt_km": 491.90158926051026, "timestamp": "2025-12-17T21:39:45.355723+00:00", "meta": {"OBJECT_NAME": "TIANMU-1 17", "OBJECT_ID": "2024-004C", "EPOCH": "2025-12-17T14:42:54.787104", "MEAN_MOTION": 15.2454178, "ECCENTRICITY": 0.00035151, "INCLINATION": 97.4596, "RA_OF_ASC_NODE": 172.8614, "ARG_OF_PERICENTER": 276.8624, "MEAN_ANOMALY": 83.2213, "EPHEMERIS_TYPE": 0, "CLASSIFICATION_TYPE": "U", "NORAD_CAT_ID": 58702, "ELEMENT_SET_NO": 999, "REV_AT_EPOCH": 10808, "BSTAR": 0.00022548326, "MEAN_MOTION_DOT": 5.478e-05, "MEAN_MOTION_DDOT": 0}, "tle": {"line1": "1 58702U 24004C   25351.61313411  .00005478  00000+0  22548-3 0  9995", "line2": "2 58702  97.4596 172.8614 0003515 276.8624  83.2213 15.24541780108085"}}, "geometry": {"type": "Point", "coordinates": [-2.1859733432197146, 31.825160988609518]}}, {"type": "Feature", "properties": {"norad_id": 58703, "name": "TIANMU-1 18", "group": "weather", "lat": -58.31289301066795, "lon": -18.91148433103291, "alt_km": 497.7385448043651, "timestamp": "2025-12-17T21:39:45.355732+00:00", "meta": {"OBJECT_NAME": "TIANMU-1 18", "OBJECT_ID": "2024-004D", "EPOCH": "2025-12-17T15:53:28.006080", "MEAN_MOTION": 15.24527761, "ECCENTRICITY": 0.00028643, "INCLINATION": 97.4613, "RA_OF_ASC_NODE": 173.1066, "ARG_OF_PERICENTER": 275.3419, "MEAN_ANOMALY": 84.7492, "EPHEMERIS_TYPE": 0, "CLASSIFICATION_TYPE": "U", "NORAD_CAT_ID": 58703, "ELEMENT_SET_NO": 999, "REV_AT_EPOCH": 10809, "BSTAR": 0.00022846435, "MEAN_MOTION_DOT": 5.549e-05, "MEAN_MOTION_DDOT": 0}, "tle": {"line1": "1 58703U 24004D   25351.66212970  .00005549  00000+0  22846-3 0  9999", "line2": "2 58703  97.4613 173.1066 0002864 275.3419  84.7492 15.24527761108092"}}, "geometry": {"type": "Point", "coordinates": [-18.91148433103291, -58.31289301066795]}}, {"type": "Feature", "properties": {"norad_id": 58990, "name": "INSAT-3DS", "group": "weather", "lat": 0.031047347549621775, "lon": 133.78862151528904, "alt_km": 35789.300143910266, "timestamp": "2025-12-17T21:39:45.355743+00:00", "meta": {"OBJECT_NAME": "INSAT-3DS", "OBJECT_ID": "2024-033A", "EPOCH": "2025-12-17T13:42:57.803904", "MEAN_MOTION": 1.00272525, "ECCENTRICITY": 0.00011147, "INCLINATION": 0.049, "RA_OF_ASC_NODE": 113.9797, "ARG_OF_PERICENTER": 156.2127, "MEAN_ANOMALY": 104.0916, "EPHEMERIS_TYPE": 0, "CLASSIFICATION_TYPE": "U", "NORAD_CAT_ID": 58990, "ELEMENT_SET_NO": 999, "REV_AT_EPOCH": 4524, "BSTAR": 0, "MEAN_MOTION_DOT": -1.31e-06, "MEAN_MOTION_DDOT": 0}, "tle": {"line1": "1 58990U 24033A   25351.57150236 -.00000131  00000+0  00000+0 0  9992", "line2": "2 58990   0.0490 113.9797 0001114 156.2127 104.0916  1.00272525 45244"}}, "geometry": {"type": "Point", "coordinates": [133.78862151528904, 0.031047347549621775]}}, {"type": "Feature", "properties": {"norad_id": 59051, "name": "METEOR-M2 4", "group": "weather", "lat": -40.20300436656947, "lon": -43.85381753646955, "alt_km": 819.2672589494114, "timestamp": "2025-12-17T21:39:45.355753+00:00", "meta": {"OBJECT_NAME": "METEOR-M2 4", "OBJECT_ID": "2024-039A", "EPOCH": "2025-12-17T15:06:02.416032", "MEAN_MOTION": 14.2240206, "ECCENTRICITY": 0.00067761, "INCLINATION": 98.6772, "RA_OF_ASC_NODE": 308.4615, "ARG_OF_PERICENTER": 344.2879, "MEAN_ANOMALY": 15.8088, "EPHEMERIS_TYPE": 0, "CLASSIFICATION_TYPE": "U", "NORAD_CAT_ID": 59051, "ELEMENT_SET_NO": 999, "REV_AT_EPOCH": 9345, "BSTAR": 2.6714477e-05, "MEAN_MOTION_DOT": 1.6e-07, "MEAN_MOTION_DDOT": 0}, "tle": {"line1": "1 59051U 24039A   25351.62919463  .00000016  00000+0  26714-4 0  9994", "line2": "2 59051  98.6772 308.4615 0006776 344.2879  15.8088 14.22402060 93453"}}, "geometry": {"type": "Point", "coordinates": [-43.85381753646955, -40.20300436656947]}}, {"type": "Feature", "properties": {"norad_id": 60133, "name": "GOES 19", "group": "weather", "lat": 0.006243359701618513, "lon": -23.484015416783325, "alt_km": 35781.85366053339, "timestamp": "2025-12-17T21:39:45.355763+00:00", "meta": {"OBJECT_NAME": "GOES 19", "OBJECT_ID": "2024-119A", "EPOCH": "2025-12-17T12:58:09.594912", "MEAN_MOTION": 1.00271892, "ECCENTRICITY": 0.00010397, "INCLINATION": 0.0031, "RA_OF_ASC_NODE": 210.9767, "ARG_OF_PERICENTER": 111.4758, "MEAN_ANOMALY": 243.3164, "EPHEMERIS_TYPE": 0, "CLASSIFICATION_TYPE": "U", "NORAD_CAT_ID": 60133, "ELEMENT_SET_NO": 999, "REV_AT_EPOCH": 514, "BSTAR": 0, "MEAN_MOTION_DOT": -2.24e-06, "MEAN_MOTION_DDOT": 0}, "tle": {"line1": "1 60133U 24119A   25351.54038883 -.00000224  00000+0  00000+0 0  9992", "line2": "2 60133   0.0031 210.9767 0001039 111.4758 243.3164  1.00271892  5144"}}, "geometry": {"type": "Point", "coordinates": [-23.484015416783325, 0.006243359701618513]}}, {"type": "Feature", "properties": {"norad_id": 65815, "name": "FENGYUN 3H", "group": "weather", "lat": 27.626386245173823, "lon": 115.9553115311209, "alt_km": 824.1561487626832, "timestamp": "2025-12-17T21:39:45.355774+00:00", "meta": {"OBJECT_NAME": "FENGYUN 3H", "OBJECT_ID": "2025-219A", "EPOCH": "2025-12-17T14:11:04.782912", "MEAN_MOTION": 14.19906054, "ECCENTRICITY": 6.818e-05, "INCLINATION": 98.6589, "RA_OF_ASC_NODE": 291.0761, "ARG_OF_PERICENTER": 101.2597, "MEAN_ANOMALY": 258.8656, "EPHEMERIS_TYPE": 0, "CLASSIFICATION_TYPE": "U", "NORAD_CAT_ID": 65815, "ELEMENT_SET_NO": 999, "REV_AT_EPOCH": 1161, "BSTAR": 5.0650271e-05, "MEAN_MOTION_DOT": 6.4e-07, "MEAN_MOTION_DDOT": 0}, "tle": {"line1": "1 65815U 25219A   25351.59102758  .00000064  00000+0  50650-4 0  9996", "line2": "2 65815  98.6589 291.0761 0000681 101.2597 258.8656 14.19906054 11616"}}, "geometry": {"type": "Point", "coordinates": [115.9553115311209, 27.626386245173823]}}]}